C/2014 B1 (Schwartz),e,28.4000,161.4055,345.8246,65824,0.0000001,0.99985483,0.0000,09/09.8829/2017,2000,g  4.0,4.0
# From MPC102095
P/2014 C1 (TOTAS),e,2.6826,167.7875,24.1385,3.043244,0.1856517,0.44708201,71.9746,05/05.0/2020,2000,g 15.5,4.0
# From MPC 91614
P/2014 E1 (Larson),e,15.9764,39.0395,186.0028,3.712637,0.1377782,0.42362190,299.2190,05/05.0/2020,2000,g 14.0,4.0
# From MPC 94280
C/2014 F3 (Sheppard-Trujillo),e,6.5382,326.9195,2.3544,16.17962,0.0151444,0.64766943,354.4306,05/05.0/2020,2000,g  6.0,4.0
# From MPC105541
C/2014 HU195 (Valdes-TOTAS),e,5.8172,115.7379,145.3912,22.12866,0.0094683,0.76793755,17.1564,05/05.0/2020,2000,g 10.5,4.0
# From MPC 98560
P/2014 L2 (NEOWISE),e,5.1953,149.3535,182.6281,6.303885,0.0622718,0.64786486,131.9066,05/05.0/2020,2000,g 12.0,4.0
# From MPC 90769
P/2014 L3 (Hill),e,6.2775,115.4707,178.6098,8.163917,0.0422529,0.77396102,90.2067,05/05.0/2020,2000,g 16.0,4.0
# From MPC103844
C/2014 M1 (PANSTARRS),e,160.2194,234.7807,337.1464,11636,0.0000008,0.99951895,0.0000,08/27.7095/2015,2000,g  9.0,4.0
# From MPC 91614
P/2014 M4 (PANSTARRS),e,3.3345,263.2845,147.9682,5.876987,0.0691786,0.59353631,135.4845,05/05.0/2020,2000,g 15.0,4.0
# From MPC103844
P/2014 MG4 (Spacewatch-PANSTARRS),e,9.3707,311.7365,299.0666,5.011626,0.0878489,0.25999473,220.7710,05/05.0/2020,2000,g  9.5,4.0
# From MPC103844
C/2014 N3 (NEOWISE),e,61.6627,19.8387,353.4015,1594,0.0000155,0.99757273,0.0000,03/12.7111/2015,2000,g  7.0,4.0
# From MPC 98560
P/2014 O3 (PANSTARRS),e,7.8089,87.6400,204.5079,7.559131,0.0474238,0.38640764,104.6497,05/05.0/2020,2000,g 10.5,4.0
# From MPEC 2020-H67
C/2014 OE4 (PANSTARRS),h,12/12.5193/2016,81.3345,240.4014,65.8620,1.002644,6.247839,2000,11.0,2.0
# From MPC100578
C/2014 Q1 (PANSTARRS),e,43.0566,9.1002,119.9172,947.5050,0.0000338,0.99966378,0.0000,07/05.1266/2015,2000,g  8.0,4.0
# From MPEC 2020-H67
C/2014 R3 (PANSTARRS),e,90.9045,334.0924,113.4606,7909,0.0000014,0.99908001,0.0000,08/08.7392/2016,2000,g  6.5,4.0
# From MPC 91615
P/2014 R5 (Lemmon-PANSTARRS),e,1.0883,126.5514,213.7002,4.057267,0.1206018,0.41331823,259.1553,05/05.0/2020,2000,g 15.0,4.0
# From MPC104790
C/2014 S2 (PANSTARRS),e,64.4779,8.1140,87.3499,170.9556,0.0004409,0.98781823,0.0000,12/08.9936/2015,2000,g 10.0,4.0
# From MPC 91616
P/2014 U4 (PANSTARRS),e,6.4284,11.9396,347.7334,3.507987,0.1500089,0.46543717,317.3170,05/05.0/2020,2000,g 18.0,4.0
# From MPC 95211
P/2014 V1 (PANSTARRS),e,22.5063,166.2070,177.5505,5.482338,0.0767813,0.53381665,148.1865,05/05.0/2020,2000,g 14.0,4.0
# From MPC 93586
P/2014 W1 (PANSTARRS),e,8.8394,246.2456,152.3088,4.460427,0.1046260,0.38861821,221.3724,05/05.0/2020,2000,g 15.5,4.0
# From MPC110493
C/2014 W2 (PANSTARRS),e,82.0360,69.9665,84.9387,593.2740,0.0000682,0.99549513,0.0000,03/08.4640/2016,2000,g  7.5,4.0
# From MPC105542
P/2014 W4 (PANSTARRS),e,15.2682,33.3490,67.9479,6.602673,0.0580931,0.35208734,92.1925,05/05.0/2020,2000,g 11.0,4.0
# From MPEC 2020-H67
C/2014 W5 (Lemmon-PANSTARRS),e,145.6169,245.4613,281.3875,103.6604,0.0009339,0.97677731,0.0000,02/08.5928/2016,2000,g 10.0,4.0
# From MPC 95211
C/2014 W6 (Catalina),h,03/18.0159/2015,53.4830,338.2038,209.9462,1.001184,3.097673,2000,10.5,4.0
# From MPC 91616
C/2014 W8 (PANSTARRS),e,41.9647,224.8278,227.9813,169.5909,0.0004463,0.97040451,0.0000,09/08.7696/2015,2000,g 11.0,4.0
# From MPC115880
C/2014 W10 (PANSTARRS),e,82.8683,43.1271,43.6638,841.6758,0.0000404,0.99100032,0.0000,03/04.6403/2016,2000,g  8.0,4.0
# From MPC107047
C/2014 W11 (PANSTARRS),e,20.8977,294.9479,227.6198,9.594019,0.0331668,0.61435029,61.6419,05/05.0/2020,2000,g 10.0,4.0
# From MPC 93587
P/2014 W12 (Gibbs),e,8.5141,299.2897,36.9174,3.517600,0.1493944,0.52398100,298.6926,05/05.0/2020,2000,g 15.0,4.0
# From MPC 94281
P/2014 X1 (Elenin),e,25.9974,61.5004,34.0167,6.211752,0.0636624,0.70852067,124.1407,05/05.0/2020,2000,g 15.0,4.0
# From MPC 96866
C/2014 XB8 (PANSTARRS),e,149.7927,37.4783,351.2802,608.5308,0.0000657,0.99506318,0.0000,04/03.7917/2015,2000,g 13.5,4.0
# From MPC100579
C/2014 Y1 (PANSTARRS),h,01/16.6744/2016,14.9155,19.5333,182.3421,1.001630,2.251550,2000,9.5,4.0
# From MPC 96279
C/2015 A1 (PANSTARRS),e,80.1946,341.0250,244.9363,20.23569,0.0108275,0.90128705,20.3577,05/05.0/2020,2000,g 14.5,4.0
# From MPC 93587
C/2015 A2 (PANSTARRS),p,08/01.8353/2015,109.1696,208.8369,5.341055,258.5042,2000,10.5,4.0
# From MPC 92275
P/2015 A3 (PANSTARRS),e,172.5279,277.1586,249.2081,7.807166,0.0451818,0.85171968,85.9395,05/05.0/2020,2000,g 20.0,4.0
# From MPEC 2020-H67
P/2015 B1 (PANSTARRS),e,18.0250,353.0604,188.7653,9.502767,0.0336457,0.36935747,56.9310,05/05.0/2020,2000,g  8.5,4.0
# From MPC108592
C/2015 B2 (PANSTARRS),h,05/06.0128/2016,105.0110,341.8674,284.7159,1.000148,3.368635,2000,9.5,4.0
# From MPC109141
P/2015 B4 (Lemmon-PANSTARRS),e,1.7602,266.0258,227.5170,8.537897,0.0395073,0.56077269,75.6466,05/05.0/2020,2000,g 11.0,4.0
# From MPC101096
P/2015 C1 (TOTAS-Gibbs),e,13.8857,348.8317,178.3868,6.588880,0.0582756,0.56032261,106.8224,05/05.0/2020,2000,g 12.5,4.0
# From MPC 95211
C/2015 C2 (SWAN),e,94.5548,49.4842,333.9460,342.6200,0.0001554,0.99794169,0.0000,03/03.8864/2015,2000,g 14.0,4.0
# From MPEC 2020-H67
C/2015 D3 (PANSTARRS),h,05/03.0817/2016,128.5446,157.0420,2.9950,1.003872,8.148610,2000,5.5,4.0
# From MPC109141
P/2015 D5 (Kowalski),e,20.4938,74.0607,39.9760,8.978279,0.0366365,0.48892356,81.5187,05/05.0/2020,2000,g  9.0,4.0
# From MPC 96866
P/2015 D6 (Lemmon-PANSTARRS),e,20.2073,46.1038,125.2559,7.151360,0.0515372,0.36245510,90.9381,05/05.0/2020,2000,g 10.5,4.0
# From MPEC 2020-H67
C/2015 ER61 (PANSTARRS),e,6.3449,235.1964,68.2352,465.2495,0.0000982,0.99776075,0.0000,05/10.3310/2017,2000,g 11.0,2.0
# From MPEC 2018-BF5
C/2015 E61-B (PANSTARRS),e,6.3465,235.2314,68.3245,1186,0.0000241,0.99912021,0.0000,05/10.3085/2017,2000,g 13.5,2.0
# From MPC109142
P/2015 F1 (PANSTARRS),e,2.8025,40.4034,187.4199,3.523774,0.1490020,0.27824142,279.4838,05/05.0/2020,2000,g 12.5,4.0
# From MPC 98561
C/2015 F2 (Polonia),e,28.7261,262.4520,352.2389,39.19000,0.0040174,0.96898840,7.3623,05/05.0/2020,2000,g 16.5,4.0
# From MPC 96279
C/2015 F3 (SWAN),e,73.5695,31.7306,57.4419,179.1160,0.0004112,0.99534061,0.0000,03/07.3801/2015,2000,g 14.5,4.0
# From MPC115880
C/2015 F4 (Jacques),e,48.8077,285.9192,36.3213,117.5035,0.0007738,0.98604516,0.0000,08/11.9526/2015,2000,g 11.0,4.0
# From MPC 95212
C/2015 F5 (SWAN-Xingming),e,149.3818,287.7500,13.4813,15.57747,0.0160309,0.97758330,0.0000,03/28.5054/2015,2000,g 15.5,4.0
# From MPC102096
C/2015 GX (PANSTARRS),e,90.2600,235.4839,108.8068,16.16349,0.0151671,0.87865448,25.9715,05/05.0/2020,2000,g 14.0,4.0
# From MPC109142
C/2015 G2 (MASTER),h,05/24.9038/2015,147.6646,110.2526,257.6464,1.000626,0.778890,2000,11.0,4.0
# From MPC 98561
C/2015 H1 (Bressi),e,140.6798,325.8464,21.9479,32.06337,0.0054286,0.93952035,10.1293,05/05.0/2020,2000,g 13.5,4.0
# From MPC117068
C/2015 H2 (PANSTARRS),h,09/14.2422/2016,33.6670,350.6885,288.0418,1.005548,4.973821,2000,7.5,4.0
# From MPC100280
P/2015 HG16 (PANSTARRS),e,18.8417,59.1483,47.2493,4.751857,0.0951500,0.34939128,203.7407,05/05.0/2020,2000,g 12.5,4.0
# From MPC101096
C/2015 J2 (PANSTARRS),e,17.2732,56.7561,203.9035,295.0607,0.0001945,0.98531563,0.0000,09/10.0028/2015,2000,g 10.0,4.0
# From MPC 95733
P/2015 J3 (NEOWISE),e,8.1309,111.3516,129.4359,3.349257,0.1607983,0.55449265,303.3815,05/05.0/2020,2000,g 16.5,4.0
# From MPC 95733
C/2015 K2 (PANSTARRS),e,29.0762,223.7240,15.9489,307.2119,0.0001830,0.99523530,0.0000,06/08.8843/2015,2000,g 20.0,4.0
# From MPC 95733
C/2015 K4 (PANSTARRS),h,05/01.8536/2015,80.2578,250.7361,357.7414,1.000957,2.018315,2000,15.0,4.0
# From MPC 95213
P/2015 K5 (PANSTARRS),e,39.9463,134.1866,106.2889,6.717734,0.0566070,0.55403950,101.5841,05/05.0/2020,2000,g 13.5,4.0
# From MPC111767
C/2015 LC2 (PANSTARRS),h,05/02.3130/2015,93.7232,223.6065,342.0394,1.000450,5.906647,2000,8.0,4.0
# From MPC 95734
C/2015 M1 (PANSTARRS),e,57.3309,100.1728,164.1936,454.1373,0.0001018,0.99537650,0.0000,05/15.8781/2015,2000,g 16.5,4.0
# From MPC107684
P/2015 M2 (PANSTARRS),e,3.9735,86.5792,225.2221,7.223616,0.0507659,0.18108798,86.4260,05/05.0/2020,2000,g  8.5,4.0
# From MPC115881
C/2015 M3 (PANSTARRS),e,65.8752,143.0077,123.8861,138.6436,0.0006037,0.97433190,0.0000,08/26.2116/2015,2000,g 12.0,4.0
# From MPEC 2020-H67
C/2015 O1 (PANSTARRS),h,02/19.4228/2018,127.2247,299.8517,89.6418,1.000916,3.730584,2000,6.5,4.0
# From MPC 96280
C/2015 P3 (SWAN),e,58.1995,87.9932,133.1189,266.5907,0.0002264,0.99728997,0.0000,07/27.3969/2015,2000,g 15.5,4.0
# From MPC 99819
P/2015 P4 (PANSTARRS),e,8.7179,104.7680,280.5895,6.051690,0.0662047,0.58413042,103.8067,05/05.0/2020,2000,g 14.0,4.0
# From MPC102952
P/2015 PD229 (Cameron-ISON),e,2.0260,342.6471,352.3573,7.179422,0.0512354,0.32798358,88.4031,05/05.0/2020,2000,g 11.5,2.0
# From MPC 99819
P/2015 Q1 (Scotti),e,22.3975,203.0154,199.8686,3.470402,0.1524525,0.47865732,260.9594,05/05.0/2020,2000,g 14.0,4.0
# From MPC 96867
P/2015 Q2 (Pimentel),e,146.4727,228.3818,244.4222,7.344913,0.0495136,0.75119067,84.3080,05/05.0/2020,2000,g 15.5,4.0
# From MPC 98562
P/2015 R1 (PANSTARRS),e,22.6743,48.4727,300.3858,5.881166,0.0691049,0.63372273,122.5917,05/05.0/2020,2000,g 14.0,4.0
# From MPC 95734
P/2015 R2 (PANSTARRS),e,15.4735,168.6097,149.7117,4.489400,0.1036147,0.45261780,185.4679,05/05.0/2020,2000,g 14.5,4.0
# From MPEC 2020-H67
C/2015 T2 (PANSTARRS),e,124.5487,51.0452,30.6668,2519,0.0000078,0.99724728,0.0000,05/18.8143/2017,2000,g  8.0,4.0
# From MPC 96280
P/2015 T3 (PANSTARRS),e,13.0937,120.5019,178.6330,4.326181,0.1095335,0.50818108,359.9227,12/21.0/2014,2000,g 14.0,4.0
# From MPC102953
C/2015 T4 (PANSTARRS),e,87.9675,251.8034,270.0599,80.20933,0.0013720,0.97135470,0.0000,06/17.3493/2016,2000,g 11.0,4.0
# From MPC102097
C/2015 T5 (Sheppard-Tholen),e,11.0497,311.0754,61.8033,28.08243,0.0066230,0.66768978,10.3633,05/05.0/2020,2000,g  7.5,4.0
# From MPC102953
